{
 "type": "FeatureCollection",
 "features": [
  {
   "type": "Feature",
   "properties": {
    "utility": "Example Electric Cooperative",
    "name": "Clearwater - North Augusta 230 kV Line",
    "kv": 230,
    "type": "new_line",
    "start": "2027-02-01",
    "in_service": "2028-11-30",
    "cost": 38000000,
    "description": "New 9 mi line on existing easement"
   },
   "geometry": {
    "type": "LineString",
    "coordinates": [
     [
      -81.93,
      33.53
     ],
     [
      -81.97,
      33.5
     ],
     [
      -82,
      33.48
     ]
    ]
   }
  },
  {
   "type": "Feature",
   "properties": {
    "utility": "Example Electric Cooperative",
    "name": "Beech Island 115 kV Substation Expansion",
    "kv": 115,
    "type": "substation",
    "start": "",
    "in_service": "2028",
    "cost": 9500000,
    "description": "Add second 115/25 kV transformer"
   },
   "geometry": {
    "type": "Point",
    "coordinates": [
     -81.88,
     33.43
    ]
   }
  },
  {
   "type": "Feature",
   "properties": {
    "utility": "Example Electric Cooperative",
    "name": "Hardeeville - Purrysburg 115 kV Rebuild",
    "kv": 115,
    "type": "rebuild",
    "start": "2028-01-15",
    "in_service": "2029-05-31",
    "cost": 14200000,
    "description": "Rebuild 6 mi on steel poles"
   },
   "geometry": {
    "type": "LineString",
    "coordinates": [
     [
      -81.08,
      32.29
     ],
     [
      -81.1,
      32.25
     ],
     [
      -81.12,
      32.21
     ]
    ]
   }
  },
  {
   "type": "Feature",
   "properties": {
    "utility": "Example Electric Cooperative",
    "name": "Port Wentworth 230 kV Switching Station",
    "kv": 230,
    "type": "substation",
    "start": "",
    "in_service": "Summer 2029",
    "cost": 21000000,
    "description": "New 6-breaker ring bus"
   },
   "geometry": {
    "type": "Point",
    "coordinates": [
     -81.16,
     32.16
    ]
   }
  },
  {
   "type": "Feature",
   "properties": {
    "utility": "Example Electric Cooperative",
    "name": "Jackson - Kathwood 115 kV Line",
    "kv": 115,
    "type": "new_line",
    "start": "",
    "in_service": "2030",
    "cost": 11000000,
    "description": "New 4 mi line"
   },
   "geometry": {
    "type": "LineString",
    "coordinates": [
     [
      -81.79,
      33.33
     ],
     [
      -81.74,
      33.3
     ]
    ]
   }
  }
 ]
}
