<?xml version="1.0" encoding="UTF-8"?>
<kml xmlns="http://www.opengis.net/kml/2.2"><Document><name>Example Electric Cooperative plan (sample)</name>
<Placemark><name>Clearwater - North Augusta 230 kV Line</name><description>New 9 mi line on existing easement</description>
<ExtendedData><Data name="utility"><value>Example Electric Cooperative</value></Data><Data name="kv"><value>230</value></Data><Data name="type"><value>new_line</value></Data><Data name="start"><value>2027-02-01</value></Data><Data name="in_service"><value>2028-11-30</value></Data><Data name="cost"><value>38000000</value></Data></ExtendedData>
<LineString><coordinates>-81.93,33.53 -81.97,33.5 -82,33.48</coordinates></LineString></Placemark>
<Placemark><name>Beech Island 115 kV Substation Expansion</name><description>Add second 115/25 kV transformer</description>
<ExtendedData><Data name="utility"><value>Example Electric Cooperative</value></Data><Data name="kv"><value>115</value></Data><Data name="type"><value>substation</value></Data><Data name="start"><value></value></Data><Data name="in_service"><value>2028</value></Data><Data name="cost"><value>9500000</value></Data></ExtendedData>
<Point><coordinates>-81.88,33.43</coordinates></Point></Placemark>
<Placemark><name>Hardeeville - Purrysburg 115 kV Rebuild</name><description>Rebuild 6 mi on steel poles</description>
<ExtendedData><Data name="utility"><value>Example Electric Cooperative</value></Data><Data name="kv"><value>115</value></Data><Data name="type"><value>rebuild</value></Data><Data name="start"><value>2028-01-15</value></Data><Data name="in_service"><value>2029-05-31</value></Data><Data name="cost"><value>14200000</value></Data></ExtendedData>
<LineString><coordinates>-81.08,32.29 -81.1,32.25 -81.12,32.21</coordinates></LineString></Placemark>
<Placemark><name>Port Wentworth 230 kV Switching Station</name><description>New 6-breaker ring bus</description>
<ExtendedData><Data name="utility"><value>Example Electric Cooperative</value></Data><Data name="kv"><value>230</value></Data><Data name="type"><value>substation</value></Data><Data name="start"><value></value></Data><Data name="in_service"><value>Summer 2029</value></Data><Data name="cost"><value>21000000</value></Data></ExtendedData>
<Point><coordinates>-81.16,32.16</coordinates></Point></Placemark>
<Placemark><name>Jackson - Kathwood 115 kV Line</name><description>New 4 mi line</description>
<ExtendedData><Data name="utility"><value>Example Electric Cooperative</value></Data><Data name="kv"><value>115</value></Data><Data name="type"><value>new_line</value></Data><Data name="start"><value></value></Data><Data name="in_service"><value>2030</value></Data><Data name="cost"><value>11000000</value></Data></ExtendedData>
<LineString><coordinates>-81.79,33.33 -81.74,33.3</coordinates></LineString></Placemark>
</Document></kml>
